ASTRA 1D                
1 23331U 94070A   21171.13243874 -.00000268  00000-0  00000+0 0  9992
2 23331   9.6092  40.0520 0003926  54.5129 148.6800  1.00270853 97882
AMC-1 (GE-1)            
1 24315U 96054A   21171.55735448  .00000069  00000-0  00000+0 0  9996
2 24315   4.7748  76.0766 0003264   1.4225 261.2187  1.00271278 90743
AMC-3 (GE-3)            
1 24936U 97050A   21171.29216385 -.00000255  00000-0  00000+0 0  9995
2 24936   3.6705  82.7464 0003218   5.3772 213.7714  1.00271940 87167
NSS-5                   
1 24957U 97053A   21171.25952021  .00000106  00000-0  00000+0 0  9995
2 24957   6.7089  61.6789 0004176  26.9127 324.0380  1.00274661 86967
ASTRA 1G                
1 25071U 97076A   21171.29076522  .00000120  00000-0  00000+0 0  9991
2 25071   5.4276  70.9103 0003465  12.8302 309.0552  1.00273598 86255
ASTRA 2A                
1 25462U 98050A   21171.22065507  .00000154  00000-0  00000+0 0  9999
2 25462   2.5105  89.3888 0002555 353.6879 292.9902  1.00267960 83461
AMC-4 (GE-4)            
1 25954U 99060A   21171.34442933  .00000094  00000-0  00000+0 0  9995
2 25954   0.6185  95.8408 0003374 358.4939 163.5251  1.00271083 79202
ASTRA 2B                
1 26494U 00054A   21171.16544597 -.00000167  00000-0  00000+0 0  9991
2 26494   5.3160  71.4254 0011906  73.3347 126.8442  0.98917093 75958
NSS-11 (AAP-1)          
1 26554U 00059A   21170.81948437  .00000032  00000-0  00000-0 0  9996
2 26554   0.0145 340.0500 0003313  95.7449 303.4725  1.00271707 23019
AMC-6 (GE-6)            
1 26580U 00067A   21171.34074806  .00000111  00000-0  00000+0 0  9990
2 26580   0.0166  33.2210 0002931  59.5546 159.6623  1.00272017 75707
ASTRA 2D                
1 26638U 00081A   21171.25952021  .00000065  00000-0  00000+0 0  9992
2 26638   6.5399  62.6267 0001770  27.2790 329.3995  1.00273520 75103
AMC-8 (GE-8)            
1 26639U 00081B   21171.34442984  .00000094  00000-0  00000+0 0  9997
2 26639   1.5494  92.3638 0002909   4.5430 160.8586  1.00272060 74999
ASTRA 2C                
1 26853U 01025A   21170.99428383 -.00000221  00000-0  00000+0 0  9994
2 26853   3.6956  82.5348 0002893 358.9275 157.5969  1.00065803 73292
ASTRA 3A                
1 27400U 02015B   21171.29750706 -.00000201  00000-0  00000+0 0  9992
2 27400   6.6537  61.4380 0001646  19.6874 207.9244  1.00272133 70448
NSS-7                   
1 27414U 02019A   21171.22271503 -.00000154  00000-0  00000+0 0  9994
2 27414   5.0659  74.1507 0002325  23.2567 231.3995  1.00271253 70286
NSS-6                   
1 27603U 02057A   21171.34164310  .00000114  00000-0  00000+0 0  9991
2 27603   0.7086  95.7751 0004483 353.0204 133.4371  1.00269154 67756
AMC-11 (GE-11)          
1 28252U 04017A   21171.34813388  .00000076  00000-0  00000+0 0  9993
2 28252   0.0169 337.8457 0002892 115.4561 169.7938  1.00271958 62428
AMC-15                  
1 28446U 04041A   21171.37098271 -.00000082  00000-0  00000+0 0  9992
2 28446   0.0173  19.0963 0002954  69.8503 208.3487  1.00272926 61060
AMC-16                  
1 28472U 04048A   21171.23635984 -.00000199  00000-0  00000+0 0  9990
2 28472   0.0131   7.8091 0002737  83.7728 177.1724  1.00272069 60539
NSS-10 (AMC-12)         
1 28526U 05003A   21171.27942454 -.00000245  00000-0  00000+0 0  9991
2 28526   1.8968  91.0907 0003086 352.1597 248.6022  1.00270839 60046
ASTRA 1KR               
1 29055U 06012A   21171.29067799  .00000126  00000-0  00000+0 0  9999
2 29055   0.0359 275.9832 0001686 224.9015 251.6388  1.00269932 55465
AMC-18                  
1 29644U 06054B   21171.27026476 -.00000209  00000-0  00000+0 0  9997
2 29644   0.0091 340.4321 0002179 106.5842 195.9787  1.00270707 53276
ASTRA 1L                
1 31306U 07016A   21171.50601715  .00000126  00000-0  00000+0 0  9992
2 31306   0.0476 315.3818 0001817  78.3605  76.5116  1.00269820 51760
ASTRA 4A (SIRIUS 4)     
1 32299U 07057A   21171.28779920  .00000039  00000-0  00000+0 0  9991
2 32299   0.0332  65.2660 0002670  20.6321 291.2394  1.00269600 49680
AMC-21                  
1 33275U 08038B   21171.35413483  .00000043  00000-0  00000+0 0  9998
2 33275   0.0297  63.8158 0002573  14.8555 192.6984  1.00270722 47186
ASTRA 1M                
1 33436U 08057A   21171.29067799  .00000126  00000-0  00000+0 0  9998
2 33436   0.0164  81.4969 0005133  31.1653 279.8923  1.00269164 46201
CIEL-2                  
1 33453U 08063A   21171.35055875  .00000065  00000-0  00000+0 0  9995
2 33453   0.0247 265.7427 0003179 191.5948 168.7883  1.00271230 45852
NSS-9                   
1 33749U 09008A   21171.18799326  .00000079  00000-0  00000+0 0  9995
2 33749   0.0210  42.6781 0002174  46.4478  70.2306  1.00271891 45282
SES-7 (PROTOSTAR 2)     
1 34941U 09027A   21171.30844463 -.00000338  00000-0  00000+0 0  9997
2 34941   0.0347  81.1994 0000465 265.4693 141.3475  1.00268981 44333
NSS-12                  
1 36032U 09058A   21171.25952021  .00000078  00000-0  00000+0 0  9998
2 36032   0.0140  26.0605 0002793  64.0294 329.0225  1.00271414 42634
SES-1                   
1 36516U 10016A   21171.30925554 -.00000108  00000-0  00000+0 0  9993
2 36516   0.0243 309.5159 0002947 136.0238 193.5343  1.00270847 40853
ASTRA 3B                
1 36581U 10021A   21171.29155035  .00000144  00000-0  00000+0 0  9997
2 36581   0.0332 348.2275 0003893 116.3642 292.5747  1.00273392 40377
SES-3                   
1 37748U 11035A   21171.31106056 -.00000095  00000-0  00000+0 0  9997
2 37748   0.0157   5.6242 0003319  78.7376 193.3535  1.00272148 36415
ASTRA 1N                
1 37775U 11041A   21171.29067799  .00000126  00000-0  00000+0 0  9995
2 37775   0.0405  13.2917 0005221  49.6665 329.5883  1.00269802 36127
SES-2                   
1 37809U 11049A   21171.30327243 -.00000189  00000-0  00000+0 0  9996
2 37809   0.0115  29.1403 0002939  60.6307 201.1382  1.00271694 35713
QUETZSAT 1              
1 37826U 11054A   21171.27148606 -.00000235  00000-0  00000+0 0  9993
2 37826   0.0124   8.7231 0002986  88.1228 192.5916  1.00271528 35816
SES-4                   
1 38087U 12007A   21171.28247781 -.00000161  00000-0  00000+0 0  9995
2 38087   0.0135 355.6813 0002434 103.7918 248.9303  1.00272790 34217
SES-5                   
1 38652U 12036A   21171.28779920  .00000040  00000-0  00000+0 0  9995
2 38652   0.0477 298.9115 0002243 142.1910 296.1967  1.00270029 32790
ASTRA 2F                
1 38778U 12051A   21171.29250994  .00000157  00000-0  00000+0 0  9996
2 38778   0.0877 247.9822 0001381 271.6702 242.5820  1.00268131 32010
SES-6                   
1 39172U 13026A   21171.34837828 -.00000255  00000-0  00000+0 0  9991
2 39172   0.0141 345.1851 0002391 107.9431 260.5498  1.00270307 29440
O3B FM5                 
1 39188U 13031A   21171.25110566 -.00000012  00000-0  00000+0 0  9998
2 39188   0.0603 357.6006 0002203  85.7549 276.6705  5.00115944145925
O3B FM4                 
1 39189U 13031B   21171.11696808 -.00000012  00000-0  00000+0 0  9992
2 39189   0.0353  12.6274 0004720  71.9491 275.4783  5.00116060145936
O3B FM2                 
1 39190U 13031C   21170.96946713 -.00000012  00000-0  00000+0 0  9999
2 39190   0.0306  16.3192 0007861  68.3889 275.3826  5.00115712145891
O3B PFM                 
1 39191U 13031D   21171.02300892 -.00000012  00000-0  00000+0 0  9990
2 39191   0.0525   2.3726 0002724  75.6699 281.9890  5.00115760145916
ASTRA 2E                
1 39285U 13056A   21171.29250994  .00000157  00000-0  00000+0 0  9996
2 39285   0.0653 336.8743 0002966 111.8471 313.7636  1.00272206 28316
SES-8                   
1 39460U 13071A   21171.22132837 -.00000263  00000-0  00000+0 0  9995
2 39460   0.0336 255.1763 0003005 196.3118 351.8416  1.00271764 27591
ASTRA 5B                
1 39617U 14011B   21171.29312059  .00000161  00000-0  00000+0 0  9993
2 39617   0.0430 321.0505 0004260 142.9836 301.6942  1.00272287 26592
O3B FM3                 
1 40079U 14038A   21171.10405522 -.00000012  00000-0  00000+0 0  9990
2 40079   0.0416   5.9806 0000814 146.4502 207.5744  5.00115430126913
O3B FM7                 
1 40080U 14038B   21171.25040911 -.00000012  00000-0  00000+0 0  9995
2 40080   0.0374   3.4491 0004297  72.2862 284.3133  5.00115686126957
O3B FM6                 
1 40081U 14038C   21170.87672512 -.00000012  00000-0  00000+0 0  9991
2 40081   0.0413   7.3186 0002631  80.5076 272.2049  5.00115622126935
O3B FM8                 
1 40082U 14038D   21171.13054947 -.00000012  00000-0  00000+0 0  9998
2 40082   0.0392  10.7663 0002646  80.7806 268.4842  5.00115328126918
O3B FM10                
1 40348U 14083A   21170.95689479 -.00000012  00000-0  00000+0 0  9996
2 40348   0.0502   7.4857 0002546  82.1702 270.3743  5.00115788118849
O3B FM11                
1 40349U 14083B   21170.77018083 -.00000012  00000-0  00000+0 0  9994
2 40349   0.0493   2.1410 0002936  74.0261 283.8665  5.00115751118830
O3B FM12                
1 40350U 14083C   21170.83776885 -.00000012  00000-0  00000+0 0  9994
2 40350   0.0485   3.0678 0002812  84.2278 272.7375  5.00115653118839
O3B FM9                 
1 40351U 14083D   21170.62420294 -.00000012  00000-0  00000+0 0  9992
2 40351   0.0495   0.8082 0002573  86.5676 272.6546  5.00115103118846
ASTRA 2G                
1 40364U 14089A   21171.29250994  .00000157  00000-0  00000+0 0  9993
2 40364   0.0344  41.6074 0004791  26.2932 334.3210  1.00273558 23740
SES-9                   
1 41380U 16013A   21171.30844463 -.00000338  00000-0  00000+0 0  9995
2 41380   0.0261 294.5065 0002258 151.0600  42.5096  1.00271629 19473
SES-10                  
1 42432U 17017A   21170.91465878 -.00000266  00000-0  00000+0 0  9994
2 42432   0.0069 345.1725 0002879 108.6444  76.9110  1.00271631 15441
SES-15                  
1 42709U 17026A   21171.34936510  .00000067  00000-0  00000+0 0  9993
2 42709   0.0163  17.6988 0000558  66.1145 181.5740  1.00269077 15907
SES-11 (ECHOSTAR 105)   
1 42967U 17063A   21171.31106056 -.00000082  00000-0  00000+0 0  9999
2 42967   0.0203 295.7440 0002663 151.7530 188.2689  1.00270969 13522
SES-14                  
1 43175U 18012B   21170.84670199 -.00000271  00000-0  00000+0 0  9997
2 43175   0.0051 352.4077 0001110  92.9356  80.2501  1.00270523 12776
O3B FM15                
1 43231U 18024A   21170.69070686 -.00000012  00000-0  00000+0 0  9994
2 43231   0.0516  11.0465 0002682  74.3131 274.6720  5.00115522 59969
O3B FM16                
1 43232U 18024B   21171.14379436 -.00000012  00000-0  00000+0 0  9991
2 43232   0.0544  14.3866 0002710  71.2180 274.4272  5.00115475 59972
O3B FM14                
1 43233U 18024C   21171.18357770 -.00000012  00000-0  00000+0 0  9993
2 43233   0.0548  15.9538 0002875  68.3450 275.7349  5.00115973 59971
O3B FM13                
1 43234U 18024D   21170.99735686 -.00000012  00000-0  00000+0 0  9998
2 43234   0.0625 349.1900 0002864  39.2400 331.5866  5.00115750 59971
SES-12                  
1 43488U 18049A   21171.22132837 -.00000263  00000-0  00000+0 0  9990
2 43488   0.0249  51.3695 0000474 244.0764 147.8791  1.00270793 11148
O3B FM20                
1 44112U 19020A   21171.01000578 -.00000012  00000-0  00000+0 0  9990
2 44112   0.0497   7.8765 0002698  69.9914 282.1632  5.00115612 40436
O3B FM19                
1 44113U 19020B   21170.99735420 -.00000012  00000-0  00000+0 0  9998
2 44113   0.0473 351.3850 0001643  78.8575 289.7761  5.00115778 40422
O3B FM17                
1 44114U 19020C   21170.91733518 -.00000012  00000-0  00000+0 0  9997
2 44114   0.0447  31.0569 0002621  53.1245 275.8494  5.00115129 40429
O3B FM18                
1 44115U 19020D   21170.86412538 -.00000012  00000-0  00000+0 0  9998
2 44115   0.0499   7.4913 0002709  81.0832 271.4575  5.00115496 40425
